*******************************************************************************
Ephemeris / WWW_USER Tue May 22 11:06:16 2018 Pasadena, USA      / Horizons    
*******************************************************************************
Target body name: Earth (399)                     {source: DE431mx}
Center body name: Solar System Barycenter (0)     {source: DE431mx}
Center-site name: BODY CENTER
*******************************************************************************
Start time      : A.D. 2015-Jul-03 03:00:00.0000 TDB
Stop  time      : A.D. 2035-Jul-03 03:00:00.0000 TDB
Step-size       : 8000 steps
*******************************************************************************
Center geodetic : 0.00000000,0.00000000,0.0000000 {E-lon(deg),Lat(deg),Alt(km)}
Center cylindric: 0.00000000,0.00000000,0.0000000 {E-lon(deg),Dxy(km),Dz(km)}
Center radii    : (undefined)                                                  
Output units    : AU-D                                                         
Output type     : GEOMETRIC cartesian states
Output format   : 1 (position only)
Reference frame : ICRF/J2000.0                                                 
Coordinate systm: Earth Mean Equator and Equinox of Reference Epoch            
*******************************************************************************
            JDTDB,            Calendar Date (TDB),                      X,                      Y,                      Z,
**************************************************************************************************************************
$$SOE
2459255.677500000, A.D. 2021-Feb-10 04:15:36.0000, -7.776538717122863E-01,  5.706509886264995E-01,  2.475048781286311E-01,
2459256.590625000, A.D. 2021-Feb-11 02:10:30.0000, -7.876323973544238E-01,  5.592579702934558E-01,  2.425667042443825E-01,
2459257.503750000, A.D. 2021-Feb-12 00:05:24.0000, -7.974096191142346E-01,  5.477218944434250E-01,  2.375664036550447E-01,
2459258.416875000, A.D. 2021-Feb-12 22:00:18.0000, -8.069829654236466E-01,  5.360460118598217E-01,  2.325053746095038E-01,
2459259.330000000, A.D. 2021-Feb-13 19:55:12.0000, -8.163499785099114E-01,  5.242336240549372E-01,  2.273850433273971E-01,
2459260.243125000, A.D. 2021-Feb-14 17:50:06.0000, -8.255083139398049E-01,  5.122880696404644E-01,  2.222068576906138E-01,
2459261.156250000, A.D. 2021-Feb-15 15:45:00.0000, -8.344557370040518E-01,  5.002127130315587E-01,  2.169722816955101E-01,
2459262.069375000, A.D. 2021-Feb-16 13:39:54.0000, -8.431901173743376E-01,  4.880109358944636E-01,  2.116827909916575E-01,
2459262.982500000, A.D. 2021-Feb-17 11:34:48.0000, -8.517094233604756E-01,  4.756861311456829E-01,  2.063398695474748E-01,
2459263.895625000, A.D. 2021-Feb-18 09:29:42.0000, -8.600117167493027E-01,  4.632416988948582E-01,  2.009450072594774E-01,
2459264.808750000, A.D. 2021-Feb-19 07:24:36.0000, -8.680951487679702E-01,  4.506810435222602E-01,  1.954996981874329E-01,
2459265.721875000, A.D. 2021-Feb-20 05:19:30.0000, -8.759579572870547E-01,  4.380075710543225E-01,  1.900054390439112E-01,
2459266.635000000, A.D. 2021-Feb-21 03:14:24.0000, -8.835984650050284E-01,  4.252246860891096E-01,  1.844637275712263E-01,
2459267.548125000, A.D. 2021-Feb-22 01:09:18.0000, -8.910150780317133E-01,  4.123357876917588E-01,  1.788760604847806E-01,
2459268.461250000, A.D. 2021-Feb-22 23:04:12.0000, -8.982062840001701E-01,  3.993442639290692E-01,  1.732439307486885E-01,
2459269.374375000, A.D. 2021-Feb-23 20:59:06.0000, -9.051706485967781E-01,  3.862534850757703E-01,  1.675688240937709E-01,
2459270.287500000, A.D. 2021-Feb-24 18:54:00.0000, -9.119068092795477E-01,  3.730667960399506E-01,  1.618522149135800E-01,
2459271.200625000, A.D. 2021-Feb-25 16:48:54.0000, -9.184134650997701E-01,  3.597875092111837E-01,  1.560955619898103E-01,
2459272.113750000, A.D. 2021-Feb-26 14:43:48.0000, -9.246893621326445E-01,  3.464188996029801E-01,  1.503003048620153E-01,
2459273.026875000, A.D. 2021-Feb-27 12:38:42.0000, -9.307332751574720E-01,  3.329642045496485E-01,  1.444678619430350E-01,
2459273.940000000, A.D. 2021-Feb-28 10:33:36.0000, -9.365439877418681E-01,  3.194266299372711E-01,  1.385996314961026E-01,
2459274.853125000, A.D. 2021-Mar-01 08:28:30.0000, -9.421202742332409E-01,  3.058093637490369E-01,  1.326969961654375E-01,
2459275.766250000, A.D. 2021-Mar-02 06:23:24.0000, -9.474608875845167E-01,  2.921155957875011E-01,  1.267613309096077E-01,
2459276.679375000, A.D. 2021-Mar-03 04:18:18.0000, -9.525645559506144E-01,  2.783485405442658E-01,  1.207940132219962E-01,
2459277.592500000, A.D. 2021-Mar-04 02:13:12.0000, -9.574299888446494E-01,  2.645114592384638E-01,  1.147964338819014E-01,
2459278.505625000, A.D. 2021-Mar-05 00:08:06.0000, -9.620558913000786E-01,  2.506076774955404E-01,  1.087700064643757E-01,
2459279.418750000, A.D. 2021-Mar-05 22:03:00.0000, -9.664409829809654E-01,  2.366405966514982E-01,  1.027161743904677E-01,
2459280.331875000, A.D. 2021-Mar-06 19:57:54.0000, -9.705840189532069E-01,  2.226136984089437E-01,  9.663641507874304E-02,
2459281.245000000, A.D. 2021-Mar-07 17:52:48.0000, -9.744838095782642E-01,  2.085305438077197E-01,  9.053224139876138E-02,
2459282.158125000, A.D. 2021-Mar-08 15:47:42.0000, -9.781392380738997E-01,  1.943947679509471E-01,  8.440520094977019E-02,
2459283.071250000, A.D. 2021-Mar-09 13:42:36.0000, -9.815492751729066E-01,  1.802100718239430E-01,  7.825687372450559E-02,
2459283.984375000, A.D. 2021-Mar-10 11:37:30.0000, -9.847129907913179E-01,  1.659802122012197E-01,  7.208886860631976E-02,
2459284.897500000, A.D. 2021-Mar-11 09:32:24.0000, -9.876295627539979E-01,  1.517089903339364E-01,  6.590281902192975E-02,
2459285.810625000, A.D. 2021-Mar-12 07:27:18.0000, -9.902982826029292E-01,  1.374002399700375E-01,  5.970037800609049E-02,
2459286.723750000, A.D. 2021-Mar-13 05:22:12.0000, -9.927185585079161E-01,  1.230578152634581E-01,  5.348321293656311E-02,
2459287.636875000, A.D. 2021-Mar-14 03:17:06.0000, -9.948899154040257E-01,  1.086855791798177E-01,  4.725300023172564E-02,
2459288.550000000, A.D. 2021-Mar-15 01:12:00.0000, -9.968119926884220E-01,  9.428739299845811E-02,  4.101142031974521E-02,
2459289.463125000, A.D. 2021-Mar-15 23:06:54.0000, -9.984845400439495E-01,  7.986710738507508E-02,  3.476015315261983E-02,
2459290.376250000, A.D. 2021-Mar-16 21:01:48.0000, -9.999074121224855E-01,  6.542855527274308E-02,  2.850087444490564E-02,
2459291.289375000, A.D. 2021-Mar-17 18:56:42.0000, -1.001080562853894E+00,  5.097554650008286E-02,  2.223525268644336E-02,
2459292.202500000, A.D. 2021-Mar-18 16:51:36.0000, -1.002004040035802E+00,  3.651186388661265E-02,  1.596494684360796E-02,
2459293.115625000, A.D. 2021-Mar-19 14:46:30.0000, -1.002677980638186E+00,  2.204126023143155E-02,  9.691604552851495E-03,
2459294.028750000, A.D. 2021-Mar-20 12:41:24.0000, -1.003102606973284E+00,  7.567455625121292E-03,  3.416860538768693E-03,
2459294.941875000, A.D. 2021-Mar-21 10:36:18.0000, -1.003278223574160E+00, -6.905865534661795E-03, -2.857665040042770E-03,
2459295.855000000, A.D. 2021-Mar-22 08:31:12.0000, -1.003205214313114E+00, -2.137505834072678E-02, -9.130368600731133E-03,
2459296.768125000, A.D. 2021-Mar-23 06:26:06.0000, -1.002884038982167E+00, -3.583652230846866E-02, -1.539966572355864E-02,
2459297.681250000, A.D. 2021-Mar-24 04:21:00.0000, -1.002315228274948E+00, -5.028670743143111E-02, -2.166399441112144E-02,
2459298.594375000, A.D. 2021-Mar-25 02:15:54.0000, -1.001499375926832E+00, -6.472212083271710E-02, -2.792181889072018E-02,
2459299.507500000, A.D. 2021-Mar-26 00:10:48.0000, -1.000437126847375E+00, -7.913933277126513E-02, -3.417163349200313E-02,
2459300.420625000, A.D. 2021-Mar-26 22:05:42.0000, -9.991291606529358E-01, -9.353497995839954E-02, -4.041196570388922E-02,
2459301.333750000, A.D. 2021-Mar-27 20:00:36.0000, -9.975761712827665E-01, -1.079057635691204E-01, -4.664137712864204E-02,
2459302.246875000, A.D. 2021-Mar-28 17:55:30.0000, -9.957788452827923E-01, -1.222484395317731E-01, -5.285846096424000E-02,
2459303.160000000, A.D. 2021-Mar-29 15:50:24.0000, -9.937378432315596E-01, -1.365598001412172E-01, -5.906183514785556E-02,
2459304.073125000, A.D. 2021-Mar-30 13:45:18.0000, -9.914537895116485E-01, -1.508366486885439E-01, -6.525013145673016E-02,
2459304.986250000, A.D. 2021-Mar-31 11:40:12.0000, -9.889272742100562E-01, -1.650757716082686E-01, -7.142198230351646E-02,
2459305.899375000, A.D. 2021-Apr-01 09:35:06.0000, -9.861588675362215E-01, -1.792739140275431E-01, -7.757600792768841E-02,
2459306.812500000, A.D. 2021-Apr-02 07:30:00.0000, -9.831491433787405E-01, -1.934277635943359E-01, -8.371080657171534E-02,
2459307.725625000, A.D. 2021-Apr-03 05:24:54.0000, -9.798987064440795E-01, -2.075339446039622E-01, -8.982494910692726E-02,
2459308.638750000, A.D. 2021-Apr-04 03:19:48.0000, -9.764082176691202E-01, -2.215890213693416E-01, -9.591697812047136E-02,
2459309.551875000, A.D. 2021-Apr-05 01:14:42.0000, -9.726784145697187E-01, -2.355895079149817E-01, -1.019854104209878E-01,
2459310.465000000, A.D. 2021-Apr-05 23:09:36.0000, -9.687101254973184E-01, -2.495318807822924E-01, -1.080287415665984E-01,
2459311.378125000, A.D. 2021-Apr-06 21:04:30.0000, -9.645042784145480E-01, -2.634125924933721E-01, -1.140454512174465E-01,
2459312.291250000, A.D. 2021-Apr-07 18:59:24.0000, -9.600619054989413E-01, -2.772280842885030E-01, -1.200340085459598E-01,
2459313.204375000, A.D. 2021-Apr-08 16:54:18.0000, -9.553841448749439E-01, -2.909747976273683E-01, -1.259928773457107E-01,
2459314.117500000, A.D. 2021-Apr-09 14:49:12.0000, -9.504722404268128E-01, -3.046491844515060E-01, -1.319205207483984E-01,
2459315.030625000, A.D. 2021-Apr-10 12:44:06.0000, -9.453275402488986E-01, -3.182477163851307E-01, -1.378154055791996E-01,
2459315.943750000, A.D. 2021-Apr-11 10:39:00.0000, -9.399514940005392E-01, -3.317668930251174E-01, -1.436760063954269E-01,
2459316.856875000, A.D. 2021-Apr-12 08:33:54.0000, -9.343456492984497E-01, -3.452032493641677E-01, -1.495008092161213E-01,
